[{"OBJECT_NAME":"PCSAT (NO-44)","OBJECT_ID":"2001-043C","EPOCH":"2026-03-09T13:24:02.117376","MEAN_MOTION":14.31912221,"ECCENTRICITY":0.0007015,"INCLINATION":67.0506,"RA_OF_ASC_NODE":141.9526,"ARG_OF_PERICENTER":265.3804,"MEAN_ANOMALY":94.6497,"EPHEMERIS_TYPE":0,"CLASSIFICATION_TYPE":"U","NORAD_CAT_ID":26931,"ELEMENT_SET_NO":999,"REV_AT_EPOCH":27618,"BSTAR":0.00011176,"MEAN_MOTION_DOT":2.17e-6,"MEAN_MOTION_DDOT":0},{"OBJECT_NAME":"CZ-6A DEB","OBJECT_ID":"2024-140UG","EPOCH":"2026-03-09T13:56:44.287296","MEAN_MOTION":14.38378458,"ECCENTRICITY":0.003608,"INCLINATION":89.0256,"RA_OF_ASC_NODE":286.2283,"ARG_OF_PERICENTER":212.8658,"MEAN_ANOMALY":147.0299,"EPHEMERIS_TYPE":0,"CLASSIFICATION_TYPE":"U","NORAD_CAT_ID":61319,"ELEMENT_SET_NO":999,"REV_AT_EPOCH":7995,"BSTAR":0.0009656,"MEAN_MOTION_DOT":2.978e-5,"MEAN_MOTION_DDOT":0}]
